[{"OBJECT_NAME":"NOAA 17","OBJECT_ID":"2002-032A","EPOCH":"2026-03-04T20:02:22.698816","MEAN_MOTION":14.26185962,"ECCENTRICITY":0.0010687,"INCLINATION":98.8533,"RA_OF_ASC_NODE":28.4134,"ARG_OF_PERICENTER":297.2224,"MEAN_ANOMALY":62.7866,"EPHEMERIS_TYPE":0,"CLASSIFICATION_TYPE":"U","NORAD_CAT_ID":27453,"ELEMENT_SET_NO":999,"REV_AT_EPOCH":23211,"BSTAR":0.00015921,"MEAN_MOTION_DOT":3.36e-6,"MEAN_MOTION_DDOT":0},{"OBJECT_NAME":"NOAA 18","OBJECT_ID":"2005-018A","EPOCH":"2026-03-04T19:11:47.855616","MEAN_MOTION":14.13709794,"ECCENTRICITY":0.0015354,"INCLINATION":98.8164,"RA_OF_ASC_NODE":144.9755,"ARG_OF_PERICENTER":88.4209,"MEAN_ANOMALY":271.8722,"EPHEMERIS_TYPE":0,"CLASSIFICATION_TYPE":"U","NORAD_CAT_ID":28654,"ELEMENT_SET_NO":999,"REV_AT_EPOCH":7156,"BSTAR":7.5648e-5,"MEAN_MOTION_DOT":9.9e-7,"MEAN_MOTION_DDOT":0},{"OBJECT_NAME":"NOAA 19","OBJECT_ID":"2009-005A","EPOCH":"2026-03-04T18:43:27.914880","MEAN_MOTION":14.13455784,"ECCENTRICITY":0.0013081,"INCLINATION":98.9616,"RA_OF_ASC_NODE":134.5428,"ARG_OF_PERICENTER":329.375,"MEAN_ANOMALY":30.6657,"EPHEMERIS_TYPE":0,"CLASSIFICATION_TYPE":"U","NORAD_CAT_ID":33591,"ELEMENT_SET_NO":999,"REV_AT_EPOCH":87973,"BSTAR":6.7927e-5,"MEAN_MOTION_DOT":8.3e-7,"MEAN_MOTION_DDOT":0},{"OBJECT_NAME":"SUOMI NPP","OBJECT_ID":"2011-061A","EPOCH":"2026-03-04T19:25:23.367072","MEAN_MOTION":14.19541928,"ECCENTRICITY":4.07e-5,"INCLINATION":98.7865,"RA_OF_ASC_NODE":5.4509,"ARG_OF_PERICENTER":278.2565,"MEAN_ANOMALY":81.8564,"EPHEMERIS_TYPE":0,"CLASSIFICATION_TYPE":"U","NORAD_CAT_ID":37849,"ELEMENT_SET_NO":999,"REV_AT_EPOCH":74363,"BSTAR":8.26e-5,"MEAN_MOTION_DOT":1.3e-6,"MEAN_MOTION_DDOT":0},{"OBJECT_NAME":"NOAA 20 (JPSS-1)","OBJECT_ID":"2017-073A","EPOCH":"2026-03-04T18:04:58.867104","MEAN_MOTION":14.19534546,"ECCENTRICITY":9.82e-5,"INCLINATION":98.7687,"RA_OF_ASC_NODE":4.1898,"ARG_OF_PERICENTER":144.1759,"MEAN_ANOMALY":215.9483,"EPHEMERIS_TYPE":0,"CLASSIFICATION_TYPE":"U","NORAD_CAT_ID":43013,"ELEMENT_SET_NO":999,"REV_AT_EPOCH":42965,"BSTAR":6.9077e-5,"MEAN_MOTION_DOT":1.02e-6,"MEAN_MOTION_DDOT":0},{"OBJECT_NAME":"NOAA 21 (JPSS-2)","OBJECT_ID":"2022-150A","EPOCH":"2026-03-04T18:55:02.333280","MEAN_MOTION":14.19550589,"ECCENTRICITY":0.0002546,"INCLINATION":98.755,"RA_OF_ASC_NODE":4.1104,"ARG_OF_PERICENTER":115.2662,"MEAN_ANOMALY":244.8779,"EPHEMERIS_TYPE":0,"CLASSIFICATION_TYPE":"U","NORAD_CAT_ID":54234,"ELEMENT_SET_NO":999,"REV_AT_EPOCH":17173,"BSTAR":7.6963e-5,"MEAN_MOTION_DOT":1.18e-6,"MEAN_MOTION_DDOT":0}]
