NOAA 17                 
1 27453U 02032A   26063.83498494  .00000336  00000+0  15921-3 0  9996
2 27453  98.8533  28.4134 0010687 297.2224  62.7866 14.26185962232119
NOAA 18                 
1 28654U 05018A   26063.79985944  .00000099  00000+0  75648-4 0  9992
2 28654  98.8164 144.9755 0015354  88.4209 271.8722 14.13709794 71560
NOAA 19                 
1 33591U 09005A   26063.78018420  .00000083  00000+0  67927-4 0  9997
2 33591  98.9616 134.5428 0013081 329.3750  30.6657 14.13455784879734
SUOMI NPP               
1 37849U 11061A   26063.80929823  .00000130  00000+0  82600-4 0  9991
2 37849  98.7865   5.4509 0000407 278.2565  81.8564 14.19541928743634
NOAA 20 (JPSS-1)        
1 43013U 17073A   26063.75345911  .00000102  00000+0  69077-4 0  9996
2 43013  98.7687   4.1898 0000982 144.1759 215.9483 14.19534546429658
NOAA 21 (JPSS-2)        
1 54234U 22150A   26063.78822145  .00000118  00000+0  76963-4 0  9996
2 54234  98.7550   4.1104 0002546 115.2662 244.8779 14.19550589171731
